ONEWEB-0706             
1 61611U 24188T   25045.50287790  .00000108  00000+0  22693-3 0  9995
2 61611  87.9408 133.4432 0000879  80.3837 279.7397 13.22997826 17557
ONEWEB-0707             
1 61612U 24188U   25043.65121347 -.00032872  00000+0 -78149-1 0  9995
2 61612  87.9386 133.8200 0000335  13.4171 346.6973 13.23329314 19205
ONEWEB-0708             
1 61613U 24188V   25045.58335648  .00039221  00000+0  11200+0 0  9997
2 61613  87.8946 133.3679 0001656  81.1486 109.7678 13.10278255 17717
